[{"OBJECT_NAME":"STARLINK-32460","OBJECT_ID":"2024-207C","EPOCH":"2026-03-09T00:20:23.620128","MEAN_MOTION":15.27590764,"ECCENTRICITY":0.00017001,"INCLINATION":43.0002,"RA_OF_ASC_NODE":285.1359,"ARG_OF_PERICENTER":273.0231,"MEAN_ANOMALY":87.0426,"EPHEMERIS_TYPE":0,"CLASSIFICATION_TYPE":"U","NORAD_CAT_ID":61914,"ELEMENT_SET_NO":999,"REV_AT_EPOCH":7462,"BSTAR":0.0010471334,"MEAN_MOTION_DOT":0.00028675,"MEAN_MOTION_DDOT":0},{"OBJECT_NAME":"FLOCK 4G-5","OBJECT_ID":"2025-009BG","EPOCH":"2026-03-09T10:57:11.608704","MEAN_MOTION":15.28679529,"ECCENTRICITY":0.00020946,"INCLINATION":97.4058,"RA_OF_ASC_NODE":151.2478,"ARG_OF_PERICENTER":314.5072,"MEAN_ANOMALY":45.5996,"EPHEMERIS_TYPE":0,"CLASSIFICATION_TYPE":"U","NORAD_CAT_ID":62663,"ELEMENT_SET_NO":999,"REV_AT_EPOCH":6369,"BSTAR":0.00040688068,"MEAN_MOTION_DOT":0.00011278,"MEAN_MOTION_DDOT":0}]
